EPOCH,NORAD_CAT_ID,MEAN_MOTION,ECCENTRICITY,INCLINATION,RA_OF_ASC_NODE,ARG_OF_PERICENTER,MEAN_ANOMALY,MEAN_MOTION_DOT,BSTAR,TLE_LINE1,TLE_LINE2
2023-04-20 07:28:48,50803,15.08844333,0.0001931,53.2171,222.4106,59.466,300.6522,0.00004949,0.00032879,1 50803U 22001A   23110.31167177  .00004949  00000-0  32879-3 0  9999,2 50803  53.2171 222.4106 0001931  59.4660 300.6522 15.08844333 71238
2023-04-20 18:36:29,50803,15.08852936,0.0001384,53.2147,220.324,90.0661,270.049,0.00006974,0.00045568,1 50803U 22001A   23110.77534585  .00006974  00000-0  45568-3 0  9999,2 50803  53.2147 220.3240 0001384  90.0661 270.0490 15.08852936 71301
2023-04-20 18:36:29,50803,15.08852936,0.0001384,53.2147,220.324,90.0661,270.049,0.00006974,0.00045568,1 50803U 22001A   23110.77534585  .00006974  00000-0  45568-3 0  9999,2 50803  53.2147 220.3240 0001384  90.0661 270.0490 15.08852936 72571
2023-04-21 10:30:21,50803,15.08837215,0.0001262,53.2162,217.3547,61.7721,298.3398,0.00000352,0.000040229,1 50803U 22001A   23111.43775273  .00000352  00000-0  40229-4 0  9998,2 50803  53.2162 217.3547 0001262  61.7721 298.3398 15.08837215 72675
2023-04-21 12:05:44,50803,15.08840441,0.0001426,53.2164,217.057,61.2927,298.8208,0.00001615,0.00011951,1 50803U 22001A   23111.50399225  .00001615  00000-0  11951-3 0  9997,2 50803  53.2164 217.0570 0001426  61.2927 298.8208 15.08840441 71416
2023-04-22 18:18:03,50803,15.08858546,0.0001458,53.2153,211.3994,117.6035,242.5105,0.00007012,0.00045796,1 50803U 22001A   23112.76253910  .00007012  00000-0  45796-3 0  9997,2 50803  53.2153 211.3994 0001458 117.6035 242.5105 15.08858546 72870
2023-04-23 05:25:46,50803,15.08828116,0.0001124,53.2146,209.3231,79.6387,280.4732,-0.00003309,-0.00019,1 50803U 22001A   23113.22623285 -.00003309  00000-0 -19000-3 0  9991,2 50803  53.2146 209.3231 0001124  79.6387 280.4732 15.08828116 71674
2023-04-23 18:08:51,50803,15.08850256,0.0001439,53.2144,206.9436,116.8012,243.3128,0.00008194,0.00053219,1 50803U 22001A   23113.75614790  .00008194  00000-0  53219-3 0  9995,2 50803  53.2144 206.9436 0001439 116.8012 243.3128 15.08850256 71756
2023-04-24 05:16:33,50803,15.08882102,0.0000657,53.2156,204.865,129.4007,230.7043,0.00040457,0.0025426,1 50803U 22001A   23114.21982653  .00040457  00000-0  25426-2 0  9999,2 50803  53.2156 204.8650 0000657 129.4007 230.7043 15.08882102 71828
2023-04-24 05:16:33,50803,15.08882102,0.0000657,53.2156,204.865,129.4007,230.7043,0.00040457,0.0025426,1 50803U 22001A   23114.21982653  .00040457  00000-0  25426-2 0  9999,2 50803  53.2156 204.8650 0000657 129.4007 230.7043 15.08882102 73099
2023-04-25 09:53:29,50803,15.08807412,0.0001039,53.2149,199.5132,60.3976,299.7119,-0.00020646,-0.001284,1 50803U 22001A   23115.41214803 -.00020646  00000-0 -12840-2 0  9993,2 50803  53.2149 199.5132 0001039  60.3976 299.7119 15.08807412 73279
2023-04-25 09:53:29,50803,15.08807412,0.0001039,53.2149,199.5132,60.3976,299.7119,-0.00020646,-0.001284,1 50803U 22001A   23115.41214803 -.00020646  00000-0 -12840-2 0  9993,2 50803  53.2149 199.5132 0001039  60.3976 299.7119 15.08807412 72009
2023-04-26 11:19:42,50803,15.08822825,0.0001512,53.2131,194.7527,48.648,311.4642,0.00018088,0.0011522,1 50803U 22001A   23116.47201573  .00018088  00000-0  11522-2 0  9991,2 50803  53.2131 194.7527 0001512  48.6480 311.4642 15.08822825 73436
2023-04-27 11:10:28,50803,15.08867619,0.0001458,53.2133,190.2922,49.1539,310.9579,0.00022939,0.0014536,1 50803U 22001A   23117.46561016  .00022939  00000-0  14536-2 0  9990,2 50803  53.2133 190.2922 0001458  49.1539 310.9579 15.08867619 72317
2023-04-27 15:56:37,50803,15.08876201,0.0001511,53.2134,189.4002,48.1249,311.9872,0.00023221,0.0014708,1 50803U 22001A   23117.66432602  .00023221  00000-0  14708-2 0  9996,2 50803  53.2134 189.4002 0001511  48.1249 311.9872 15.08876201 73612
2023-04-28 11:01:14,50803,15.08873375,0.0001375,53.215,185.8322,47.7238,312.3871,0.00012392,0.00079459,1 50803U 22001A   23118.45919592  .00012392  00000-0  79459-3 0  9994,2 50803  53.2150 185.8322 0001375  47.7238 312.3871 15.08873375 73732
2023-04-28 11:01:14,50803,15.08873375,0.0001375,53.215,185.8322,47.7238,312.3871,0.00012392,0.00079459,1 50803U 22001A   23118.45919592  .00012392  00000-0  79459-3 0  9994,2 50803  53.2150 185.8322 0001375  47.7238 312.3871 15.08873375 72461
2023-04-29 04:30:28,50803,15.08849258,0.0001369,53.2147,182.5609,55.1272,304.9848,0.00005613,0.00037035,1 50803U 22001A   23119.18783324  .00005613  00000-0  37035-3 0  9999,2 50803  53.2147 182.5609 0001369  55.1272 304.9848 15.08849258 73840
2023-04-29 12:27:24,50803,15.08853339,0.0001313,53.2149,181.0735,58.4869,301.6251,0.00006982,0.00045615,1 50803U 22001A   23119.51903246  .00006982  00000-0  45615-3 0  9996,2 50803  53.2149 181.0735 0001313  58.4869 301.6251 15.08853339 72625
2023-04-30 09:07:25,50803,15.08839993,0.0001367,53.2148,177.2056,78.8925,281.222,0.00001591,0.00011803,1 50803U 22001A   23120.38015500  .00001591  00000-0  11803-3 0  9993,2 50803  53.2148 177.2056 0001367  78.8925 281.2220 15.08839993 72758
2023-04-30 09:07:25,50803,15.08839993,0.0001367,53.2148,177.2056,78.8925,281.222,0.00001591,0.00011803,1 50803U 22001A   23120.38015500  .00001591  00000-0  11803-3 0  9993,2 50803  53.2148 177.2056 0001367  78.8925 281.2220 15.08839993 74020
2023-05-01 12:08:59,50803,15.08836115,0.0001535,53.2164,172.1503,77.227,282.8893,0.00000262,0.000034561,1 50803U 22001A   23121.50624005  .00000262  00000-0  34561-4 0  9995,2 50803  53.2164 172.1503 0001535  77.2270 282.8893 15.08836115 74196
2023-05-01 13:44:22,50803,15.08835839,0.000147,53.2154,171.8542,69.241,290.8739,0.00000004,0.000018335,1 50803U 22001A   23121.57248042  .00000004  00000-0  18335-4 0  9990,2 50803  53.2154 171.8542 0001470  69.2410 290.8739 15.08835839 72939
2023-05-02 11:59:45,50803,15.08849553,0.0001288,53.2143,167.6921,79.2088,280.9049,0.00004189,0.00028105,1 50803U 22001A   23122.49983499  .00004189  00000-0  28105-3 0  9997,2 50803  53.2143 167.6921 0001288  79.2088 280.9049 15.08849553 74349
2023-05-02 11:59:45,50803,15.08849553,0.0001288,53.2143,167.6921,79.2088,280.9049,0.00004189,0.00028105,1 50803U 22001A   23122.49983499  .00004189  00000-0  28105-3 0  9997,2 50803  53.2143 167.6921 0001288  79.2088 280.9049 15.08849553 73078
2023-05-03 03:53:37,50803,15.08839279,0.0001571,53.2143,164.717,69.0397,291.0763,0.00001473,0.00011062,1 50803U 22001A   23123.16224012  .00001473  00000-0  11062-3 0  9998,2 50803  53.2143 164.7170 0001571  69.0397 291.0763 15.08839279 74449
2023-05-03 11:50:33,50803,15.08839492,0.0001299,53.214,163.2315,72.5716,287.5418,0.00000528,0.000051264,1 50803U 22001A   23123.49343936  .00000528  00000-0  51264-4 0  9990,2 50803  53.2140 163.2315 0001299  72.5716 287.5418 15.08839492 73221
2023-05-04 11:41:20,50803,15.0884692,0.000137,53.2149,158.7702,85.067,275.0478,0.00001049,0.000084001,1 50803U 22001A   23124.48703746  .00001049  00000-0  84001-4 0  9993,2 50803  53.2149 158.7702 0001370  85.0670 275.0478 15.08846920 74646
2023-05-04 19:38:15,50803,15.08847006,0.000122,53.2147,157.2835,78.8913,281.2217,0.00000359,0.000040611,1 50803U 22001A   23124.81823718  .00000359  00000-0  40611-4 0  9994,2 50803  53.2147 157.2835 0001220  78.8913 281.2217 15.08847006 73420
2023-05-05 11:32:07,50803,15.08842534,0.0001287,53.2147,154.3095,81.3568,278.757,0.00001419,0.00010719,1 50803U 22001A   23125.48063965  .00001419  00000-0  10719-3 0  9991,2 50803  53.2147 154.3095 0001287  81.3568 278.7570 15.08842534 74799
2023-05-05 19:29:03,50803,15.08840953,0.0001301,53.2146,152.8228,80.5426,279.5713,0.00001067,0.000085141,1 50803U 22001A   23125.81184140  .00001067  00000-0  85141-4 0  9998,2 50803  53.2146 152.8228 0001301  80.5426 279.5713 15.08840953 73576
2023-05-06 08:12:08,50803,15.0884057,0.0001327,53.2148,150.4437,83.6713,276.4431,0.00000562,0.000053381,1 50803U 22001A   23126.34176322  .00000562  00000-0  53381-4 0  9990,2 50803  53.2148 150.4437 0001327  83.6713 276.4431 15.08840570 73652
2023-05-06 08:12:08,50803,15.0884057,0.0001327,53.2148,150.4437,83.6713,276.4431,0.00000562,0.000053381,1 50803U 22001A   23126.34176322  .00000562  00000-0  53381-4 0  9990,2 50803  53.2148 150.4437 0001327  83.6713 276.4431 15.08840570 74923
2023-05-07 06:27:31,50803,15.08845813,0.0001287,53.215,146.2801,87.8174,272.2966,0.00001522,0.0001137,1 50803U 22001A   23127.26911767  .00001522  00000-0  11370-3 0  9990,2 50803  53.2150 146.2801 0001287  87.8174 272.2966 15.08845813 73792
2023-05-08 04:42:56,50803,15.08837868,0.000121,53.2151,142.1159,91.0871,269.0259,0.00000843,0.000071033,1 50803U 22001A   23128.19648498  .00000843  00000-0  71033-4 0  9999,2 50803  53.2151 142.1159 0001210  91.0871 269.0259 15.08837868 75209
2023-05-08 17:26:01,50803,15.08837071,0.000121,53.2155,139.7391,76.4325,283.6801,0.00000025,0.000019629,1 50803U 22001A   23128.72640771  .00000025  00000-0  19629-4 0  9999,2 50803  53.2155 139.7391 0001210  76.4325 283.6801 15.08837071 74013
2023-05-09 06:09:06,50803,15.08836791,0.0001241,53.2155,137.3593,71.4001,288.7126,0.00000883,0.000073582,1 50803U 22001A   23129.25632754  .00000883  00000-0  73582-4 0  9990,2 50803  53.2155 137.3593 0001241  71.4001 288.7126 15.08836791 74093
2023-05-10 07:35:17,50803,15.08830876,0.0001267,53.2155,132.601,89.0952,271.0185,0.0000051,0.000050127,1 50803U 22001A   23130.31617189  .00000510  00000-0  50127-4 0  9991,2 50803  53.2155 132.6010 0001267  89.0952 271.0185 15.08830876 74259
2023-05-10 17:07:35,50803,15.08836293,0.0001292,53.2155,130.8178,92.6539,267.4601,0.00000996,0.000080664,1 50803U 22001A   23130.71360939  .00000996  00000-0  80664-4 0  9990,2 50803  53.2155 130.8178 0001292  92.6539 267.4601 15.08836293 74311
2023-05-10 23:29:08,50803,15.08841771,0.0001273,53.2153,129.6292,96.9371,263.1766,0.00001245,0.000096279,1 50803U 22001A   23130.97856615  .00001245  00000-0  96279-4 0  9996,2 50803  53.2153 129.6292 0001273  96.9371 263.1766 15.08841771 75629
